STARLINK-31573          
1 59334U 24057Q   26068.36056542  .00002727  00000+0  10867-3 0  9997
2 59334  43.0023 188.5038 0001438 261.0470  99.0218 15.27550253109797
AL MUNTHER              
1 63240U 25052AG  26068.64540749  .00017933  00000+0  65015-3 0  9992
2 63240  97.4001 323.9152 0008027 130.7043 229.4895 15.28381521 54798
